[
    {
        "Altitude(m)": 604234.624866604,
        "Argument of Periapsis(deg)": 0.0,
        "Eccentricity": 0.0,
        "Inclination(deg)": 60.0,
        "Latitude(deg)": 14.117324935875137,
        "Longitude(deg)": 76.7273205453742,
        "Mean Anomaly(deg)": 163.6364,
        "RAAN(deg)": 5.0,
        "Satellite Name": "Test1 32",
        "Satellite Number": 32,
        "Semi-Major Axis(m)": 6980739.136638005,
        "Time(s)": 0
    },
    {
        "Altitude(m)": 604223.4529118802,
        "Argument of Periapsis(deg)": 0.00010418945913296404,
        "Eccentricity": 0.0,
        "Inclination(deg)": 60.0,
        "Latitude(deg)": 13.582461444864999,
        "Longitude(deg)": 77.01423009544524,
        "Mean Anomaly(deg)": 164.25650614546183,
        "RAAN(deg)": 4.999579950860257,
        "Satellite Name": "Test1 32",
        "Satellite Number": 32,
        "Semi-Major Axis(m)": 6980739.136638005,
        "Time(s)": 10
    }
]